ONEWEB-0228             
1 48780U 21045P   23188.69906630  .00000131  00000+0  31396-3 0  9999
2 48780  87.9023 113.3539 0001933  73.8672 286.2671 13.15546217104059
